#cP2022  3  6  0  0  0.00000000     576 d+D   IGb14 EXT AIUB
## 2200      0.00000000   300.00000000 59644 0.0000000000000
+   76   G01G02G03G04G05G06G07G08G09G10G11G12G13G14G15G16G17
+        G18G19G20G21G22G23G24G25G26G27G28G29G30G31G32R01R02
+        R03R04R05R07R08R09R11R12R13R14R15R17R18R19R20R21R22
+        R24E01E02E03E04E05E07E08E09E10E11E12E13E15E18E19E21
+        E25E26E27E30E31E33E34E36  0  0  0  0  0  0  0  0  0
++         5  7  5  8  7  6  7  6  6  5  8  7  7  7  7  7  7
++         8  7  7  7  7  7  6  6  6  6  7  7  6  7  6  9  7
++         8  8  7  8  8  6  6  7  7  6  7  9  7  9  9  8  8
++         8  6  6  6  7  6  6  7  6  7  7  7  7  6  6  7  6
++         6  7  6  6  5  7  7  6  0  0  0  0  0  0  0  0  0
%c M  cc GPS ccc cccc cccc cccc cccc ccccc ccccc ccccc ccccc
%c cc cc ccc ccc cccc cccc cccc cccc ccccc ccccc ccccc ccccc
%f  1.2500000  1.025000000  0.00000000000  0.000000000000000
%f  0.0000000  0.000000000  0.00000000000  0.000000000000000
%i    0    0    0    0      0      0      0      0         0
%i    0    0    0    0      0      0      0      0         0
/* Center for Orbit Determination in Europe (CODE)          
/* Ultra-rapid GRE orbits starting year-day 22065 00 hour   
/* Observed/predicted: 23/25 hours (data used up to 065W)   
/* PCV:IGS14      OL/AL:FES2014b NONE     YN ORB:CoN CLK:BRD
*  2022  3  7 14 40  0.00000000
PG01 -15881.608755 -13408.013528 -17022.335159    414.666940               P   P
PG02  -7176.591423  14686.878232  21620.331373   -651.938651               P   P
PG03 -13125.828867 -22687.618814   4544.905172   -152.698684               P   P
PG04  -6973.977548 -14708.133483  20977.908724   -185.248318               P   P
PG05   3523.273594  24075.008680  10306.184044    -73.836084               P   P
PG06 -22084.253887   6290.514141  13484.848947    223.512449               P   P
PG07 -25909.069745  -6011.559124   3906.821352    314.712390               P   P
PG08   1672.375228 -21149.997605 -15784.688254    -58.899835               P   P
PG09 -15609.178272  -3853.111316  21077.286358   -350.984267               P   P
PG10  15171.175885  -2018.836606 -21592.723566   -339.903780               P   P
PG11  -8791.873344  13430.175960  21157.130988    -69.155465               P   P
PG12   9656.593524  24759.290804   1442.489293   -181.300762               P   P
PG13 -10781.736644  21676.791463 -10883.866554    272.935138               P   P
PG14 -15828.564745   1016.089943 -21318.600180    -91.453408               P   P
PG15   1800.705903  21189.276898 -16124.333827    -78.605553               P   P
PG16   2244.331926 -22484.362193  13302.161419   -477.868103               P   P
PG17 -20390.673888  10915.310443 -12671.979132    584.131354               P   P
PG18  25741.856855   5870.232996   3356.006275    225.230295               P   P
PG19 -20461.824892  15534.389581  -6601.098878    127.907624               P   P
PG20  -2902.394177  19650.856084  17747.785703    516.408865               P   P
PG21  -6096.177311 -14732.320539 -20681.458000    159.076062               P   P
PG22  18855.788732 -18261.833322  -2920.098472    223.895566               P   P
PG23  17672.357691   9709.531168 -17347.105798     -4.773867               P   P
PG24  12190.336412  14552.114621 -19026.777246    270.051014               P   P
PG25  16668.427027  16671.785232  12218.663675    295.057280               P   P
PG26   9920.717448 -13638.075732  20368.931374    188.882698               P   P
PG27  11289.694810 -22880.863450  -6786.284134    145.752610               P   P
PG28 -11827.192531  10257.136433 -20974.257819    385.673862               P   P
PG29  13502.298382   6694.707149  21829.145338   -488.523831               P   P
PG30 -26215.993344     91.970452  -4945.515154   -517.381967               P   P
PG31  20808.506430  -7643.057525  14840.108344   -167.860055               P   P
PG32  19558.680214 -14548.748517 -10175.956403    -80.251997               P   P
PR01   6274.900643  16461.290500 -18437.217823      7.182185               P   P
PR02  11516.656056  -4106.363516 -22331.299117    511.785502               P   P
PR03   9581.772458 -20356.166866 -11919.069884     52.712587               P   P
PR04   2419.993224 -24901.749517   4977.725722    130.855260               P   P
PR05  -6048.237567 -15738.251661  19146.327862     88.941206               P   P
PR07  -9439.105311  20830.365135  11390.773634     32.361112               P   P
PR08  -2338.285196  24919.341993  -4932.863759    -63.909602               P   P
PR09 -19306.138444  -5912.727156 -15620.795842     43.080344               P   P
PR11   7408.961398  16948.964344 -17553.321670     44.131108               P   P
PR12  19179.164490  16812.373862   -879.756201     17.369917               P   P
PR13  19536.567621   6972.130712  14826.974450    -19.157687               P   P
PR14   7877.597699  -7897.456316  22944.440399     75.117978               P   P
PR15  -7788.552050 -17352.396560  17008.775908     97.687956               P   P
PR17  19920.241485 -11961.589772 -10549.986256    507.554845               P   P
PR18   5220.834475 -12087.960679 -21817.284284    109.518697               P   P
PR19 -10993.832828  -6801.079276 -21988.043585   -180.707946               P   P
PR20 -24057.437154   3861.215942  -7623.789176    -66.273737               P   P
PR21 -19022.350546  12126.983198  11890.450608   -283.410647               P   P
PR22  -4518.184808  11881.463066  22123.777167   -169.109111               P   P
PR24  24120.127132  -4609.331474   6932.296474     83.317950               P   P
PE01  19020.573384   2049.722549  22585.544026   -592.241725               P   P
PE02 -18957.032460  -1843.014256 -22659.480948    284.689615               P   P
PE03 -20664.345218   9866.878047  18751.489257   -534.893237               P   P
PE04  16025.951585 -24734.801945  -2726.012062   -979.429071               P   P
PE05 -13240.061825 -11079.179638  24048.377118   -202.610409               P   P
PE07  -1790.799356  25285.424262 -15271.831580   -645.956527               P   P
PE08 -15721.876875  24961.681473   2375.808750   -491.137113               P   P
PE09   1589.127984 -25165.754967  15517.015102   5336.704813               P   P
PE10   7352.065458 -15689.622264 -24001.281631   -499.152949               P   P
PE11  -4885.564438 -15853.100554 -24521.303941   4289.605251               P   P
PE12  17823.729116 -13126.403946 -19636.449674   4725.372845               P   P
PE13   4095.763197  15845.067050  24670.791256    427.097948               P   P
PE15 -17960.636752  13061.713309  19585.492211    759.222326               P   P
PE18 -22652.159175   9379.047439 -13148.352606  -1712.018090               P   P
PE19  20303.607611  -7396.743185 -20219.257618   -919.722265               P   P
PE21  19728.721507  19519.657949  10299.444893   -721.153784               P   P
PE25 -19658.689167 -19691.438825 -10081.876427   -565.968126               P   P
PE26  24274.783547   8962.337176  14376.264523   -884.832491               P   P
PE27   9128.022701  26825.355721  -8589.756650   -247.785201               P   P
PE30  -7694.307718  17451.469027 -22656.443997   -329.386028               P   P
PE31   6767.860270 -18277.246604  22276.675716   -493.188035               P   P
PE33  29330.147260  -2578.845342  -2961.095410   -458.798368               P   P
PE34 -29299.190202   2766.757980   3173.815428   -505.482864               P   P
PE36 -23628.025398  -9296.308196 -15219.347980   -341.951103               P   P
EOF
